STARLINK-35593          
1 66107U 25236X   25306.50002315 -.00006786  00000+0 -42095-4 0  9992
2 66107  53.1586 339.8097 0001076  76.0696 131.6927 15.74177973  3415
STARLINK-35590          
1 66108U 25236Y   25306.50002315 -.00004486  00000+0 -26372-4 0  9998
2 66108  53.1586 339.8016 0001210  75.4434 136.1632 15.74169160  3355
STARLINK-35545          
1 66109U 25236Z   25306.50002315  .00008765  00000+0  64118-4 0  9991
2 66109  53.1586 339.8057 0001097  71.4240 138.2548 15.74175498  3412
STARLINK-35427          
1 66110U 25236AA  25306.50002315 -.00063190  00000+0 -42996-3 0  9997
2 66110  53.1586 339.7971 0000933  51.4500 162.0442 15.74212173  3413
STARLINK-35574          
1 66111U 25236AB  25306.50002315  .00093432  00000+0  63661-3 0  9990
2 66111  53.1586 339.7937 0000973  86.0304 129.4075 15.74136877  3354
STARLINK-35531          
1 66112U 25236AC  25306.50002315  .00046045  00000+0  31752-3 0  9995
2 66112  53.1586 339.7856 0000964  51.3264 167.9546 15.74148473  3417
STARLINK-35491          
1 66113U 25236AD  25306.50002315 -.00046580  00000+0 -31661-3 0  9991
2 66113  53.1587 339.7890 0001112  77.5647 140.0676 15.74108146  3417
STARLINK-35496          
1 66114U 25237A   25306.50002315 -.01486812  00000+0 -83008-2 0  9991
2 66114  53.1511 279.6146 0000805  75.0497  84.7061 15.81452632  3013
STARLINK-35428          
1 66115U 25237B   25306.50002315 -.01493270  00000+0 -83420-2 0  9996
2 66115  53.1508 279.6104 0000923  83.1853  78.6280 15.81450719  3010
STARLINK-35573          
1 66116U 25237C   25306.50002315 -.01499682  00000+0 -83833-2 0  9998
2 66116  53.1510 279.6060 0000852  96.3855  67.4990 15.81449905  3013
STARLINK-35572          
1 66117U 25237D   25306.50002315 -.01510582  00000+0 -84533-2 0  9990
2 66117  53.1511 279.5975 0000883  83.9944  84.0155 15.81447652  3019
STARLINK-35468          
1 66118U 25237E   25306.50002315 -.01502162  00000+0 -83901-2 0  9994
2 66118  53.1509 279.6021 0000859  96.9053  68.7794 15.81472438  3016
